ONEWEB-0020             
1 45133U 20008C   24119.58885495  .00000176  00000+0  46760-3 0  9994
2 45133  87.8983 191.2053 0002328 102.7007 257.4381 13.10372631206245
ONEWEB-0021             
1 45134U 20008D   24119.60377326 -.00000551  00000+0 -16161-2 0  9997
2 45134  87.8989 191.2155 0002094 103.2203 256.9158 13.10370395206554
ONEWEB-0023             
1 45136U 20008F   24119.46351670 -.00000589  00000+0 -17233-2 0  9999
2 45136  87.8992 191.2334 0002027  90.1044 270.0316 13.10375196205963
ONEWEB-0024             
1 45137U 20008G   24119.58718586  .00000253  00000+0  68850-3 0  9994
2 45137  87.8976 191.2020 0002069 105.3653 254.7703 13.10369860206140
ONEWEB-0025             
1 45138U 20008H   24119.60544051 -.00000596  00000+0 -17442-2 0  9994
2 45138  87.8977 191.1982 0001884 100.0427 260.0913 13.10372539206479
ONEWEB-0026             
1 45139U 20008J   24119.55726850 -.00000303  00000+0 -89089-3 0  9991
2 45139  87.9007 176.1350 0002277  99.4751 260.6634 13.11415702208924
ONEWEB-0028             
1 45140U 20008K   24119.43633637  .00000194  00000+0  51215-3 0  9996
2 45140  87.9007 176.2008 0001496  93.2969 266.8331 13.11419367206428
ONEWEB-0032             
1 45141U 20008L   24119.46767067 -.00000384  00000+0 -11373-2 0  9998
2 45141  87.8984 191.2708 0001891 102.8786 257.2552 13.10377009206186
